start=new Date('2022-09-16T00:00:00.000Z').valueOf();
sats=[{"NORAD_CAT_ID":"44721","FILE":"3575050","ELEMENT_SET_NO":"999","LAUNCH_DATE":"2019-11-11","MEAN_MOTION":"15.06396894","CENTER_NAME":"EARTH","SITE":"AFETR","OBJECT_NAME":"STARLINK-1015","OBJECT_ID":"2019-074J","ECCENTRICITY":"0.00014710","MEAN_MOTION_DDOT":"0.0000000000000","PERIOD":"95.592","REV_AT_EPOCH":"15720","BSTAR":"0.00021569000000","TIME_SYSTEM":"UTC","COUNTRY_CODE":"US","EPHEMERIS_TYPE":"0","ARG_OF_PERICENTER":"67.7872","TLE_LINE1":"1 44721U 19074J   22258.88891326  .00002932  00000-0  21569-3 0  9995","PERIAPSIS":"546.204","REF_FRAME":"TEME","SEMIMAJOR_AXIS":"6925.358","APOAPSIS":"548.242","EPOCH":"2022-09-15T21:20:02.105664","DECAY_DATE":null,"INCLINATION":"53.0542","OBJECT_TYPE":"PAYLOAD","TLE_LINE2":"2 44721  53.0542 131.4749 0001471  67.7872 292.3273 15.06396894157202","GP_ID":"212678613","MEAN_ELEMENT_THEORY":"SGP4","MEAN_ANOMALY":"292.3273","RCS_SIZE":"LARGE","MEAN_MOTION_DOT":"0.00002932","CLASSIFICATION_TYPE":"U","RA_OF_ASC_NODE":"131.4749"},{"MEAN_MOTION_DOT":"0.00000237","RCS_SIZE":"LARGE","CLASSIFICATION_TYPE":"U","RA_OF_ASC_NODE":"131.4498","MEAN_ANOMALY":"278.3892","MEAN_ELEMENT_THEORY":"SGP4","GP_ID":"212678859","TLE_LINE2":"2 44722  53.0533 131.4498 0001309  81.7245 278.3892 15.06392132157217","INCLINATION":"53.0533","OBJECT_TYPE":"PAYLOAD","DECAY_DATE":null,"EPOCH":"2022-09-15T21:23:58.502976","APOAPSIS":"548.144","SEMIMAJOR_AXIS":"6925.373","REF_FRAME":"TEME","PERIAPSIS":"546.331","TLE_LINE1":"1 44722U 19074K   22258.89164934  .00000237  00000-0  34778-4 0  9998","ARG_OF_PERICENTER":"81.7245","EPHEMERIS_TYPE":"0","COUNTRY_CODE":"US","TIME_SYSTEM":"UTC","BSTAR":"0.00003477800000","MEAN_MOTION_DDOT":"0.0000000000000","REV_AT_EPOCH":"15721","PERIOD":"95.593","ECCENTRICITY":"0.00013090","OBJECT_ID":"2019-074K","OBJECT_NAME":"STARLINK-1016","LAUNCH_DATE":"2019-11-11","CENTER_NAME":"EARTH","MEAN_MOTION":"15.06392132","SITE":"AFETR","ELEMENT_SET_NO":"999","NORAD_CAT_ID":"44722","FILE":"3575050"},{"ARG_OF_PERICENTER":"71.3359","TLE_LINE1":"1 44723U 19074L   22258.90733880  .00002263  00000-0  17079-3 0  9998","PERIAPSIS":"546.202","REF_FRAME":"TEME","SEMIMAJOR_AXIS":"6925.347","APOAPSIS":"548.222","EPOCH":"2022-09-15T21:46:34.072320","DECAY_DATE":null,"INCLINATION":"53.0535","OBJECT_TYPE":"PAYLOAD","TLE_LINE2":"2 44723  53.0535 131.3886 0001458  71.3359 288.7788 15.06400552157211","GP_ID":"212678112","MEAN_ELEMENT_THEORY":"SGP4","MEAN_ANOMALY":"288.7788","MEAN_MOTION_DOT":"0.00002263","RCS_SIZE":"LARGE","CLASSIFICATION_TYPE":"U","RA_OF_ASC_NODE":"131.3886","NORAD_CAT_ID":"44723","FILE":"3575050","ELEMENT_SET_NO":"999","MEAN_MOTION":"15.06400552","LAUNCH_DATE":"2019-11-11","CENTER_NAME":"EARTH","SITE":"AFETR","OBJECT_NAME":"STARLINK-1017","OBJECT_ID":"2019-074L","ECCENTRICITY":"0.00014580","MEAN_MOTION_DDOT":"0.0000000000000","PERIOD":"95.592","REV_AT_EPOCH":"15721","BSTAR":"0.00017079000000","TIME_SYSTEM":"UTC","COUNTRY_CODE":"US","EPHEMERIS_TYPE":"0"},{"ARG_OF_PERICENTER":"71.8553","TLE_LINE1":"1 44724U 19074M   22258.80412167  .00002210  00000-0  16720-3 0  9994","PERIAPSIS":"546.287","REF_FRAME":"TEME","SEMIMAJOR_AXIS":"6925.338","APOAPSIS":"548.120","EPOCH":"2022-09-15T19:17:56.112288","DECAY_DATE":null,"OBJECT_TYPE":"PAYLOAD","INCLINATION":"53.0545","TLE_LINE2":"2 44724  53.0545 131.8596 0001323  71.8553 288.2580 15.06403334157191","GP_ID":"212677863","MEAN_ELEMENT_THEORY":"SGP4","MEAN_ANOMALY":"288.2580","RA_OF_ASC_NODE":"131.8596","MEAN_MOTION_DOT":"0.00002210","RCS_SIZE":"LARGE","CLASSIFICATION_TYPE":"U","FILE":"3575050","NORAD_CAT_ID":"44724","ELEMENT_SET_NO":"999","SITE":"AFETR","LAUNCH_DATE":"2019-11-11","CENTER_NAME":"EARTH","MEAN_MOTION":"15.06403334","OBJECT_NAME":"STARLINK-1019","OBJECT_ID":"2019-074M","ECCENTRICITY":"0.00013230","PERIOD":"95.592","REV_AT_EPOCH":"15719","MEAN_MOTION_DDOT":"0.0000000000000","BSTAR":"0.00016720000000","TIME_SYSTEM":"UTC","COUNTRY_CODE":"US","EPHEMERIS_TYPE":"0"},{"OBJECT_NAME":"STARLINK-1020","OBJECT_ID":"2019-074N","ELEMENT_SET_NO":"999","FILE":"3574601","NORAD_CAT_ID":"44725","SITE":"AFETR","CENTER_NAME":"EARTH","LAUNCH_DATE":"2019-11-11","MEAN_MOTION":"15.06391790","TIME_SYSTEM":"UTC","EPHEMERIS_TYPE":"0","COUNTRY_CODE":"US","REV_AT_EPOCH":"15681","PERIOD":"95.593","MEAN_MOTION_DDOT":"0.0000000000000","ECCENTRICITY":"0.00012690","BSTAR":"-0.00000304950000","SEMIMAJOR_AXIS":"6925.374","REF_FRAME":"TEME","EPOCH":"2022-09-15T03:30:31.444128","APOAPSIS":"548.118","TLE_LINE1":"1 44725U 19074N   22258.14619727 -.00000327  00000-0 -30495-5 0  9999","ARG_OF_PERICENTER":"87.1218","PERIAPSIS":"546.360","MEAN_ELEMENT_THEORY":"SGP4","RA_OF_ASC_NODE":"154.7984","RCS_SIZE":"LARGE","MEAN_MOTION_DOT":"-0.00000327","CLASSIFICATION_TYPE":"U","MEAN_ANOMALY":"272.9917","OBJECT_TYPE":"PAYLOAD","INCLINATION":"53.0554","DECAY_DATE":null,"GP_ID":"212641952","TLE_LINE2":"2 44725  53.0554 154.7984 0001269  87.1218 272.9917 15.06391790156818"},{"ELEMENT_SET_NO":"999","NORAD_CAT_ID":"44726","FILE":"3574601","LAUNCH_DATE":"2019-11-11","CENTER_NAME":"EARTH","MEAN_MOTION":"15.06391682","SITE":"AFETR","OBJECT_NAME":"STARLINK-1021","OBJECT_ID":"2019-074P","MEAN_MOTION_DDOT":"0.0000000000000","PERIOD":"95.593","REV_AT_EPOCH":"15708","ECCENTRICITY":"0.00016710","BSTAR":"0.00007628800000","TIME_SYSTEM":"UTC","EPHEMERIS_TYPE":"0","COUNTRY_CODE":"US","TLE_LINE1":"1 44726U 19074P   22258.07063516  .00000855  00000-0  76288-4 0  9994","ARG_OF_PERICENTER":"79.1946","PERIAPSIS":"546.082","SEMIMAJOR_AXIS":"6925.374","REF_FRAME":"TEME","EPOCH":"2022-09-15T01:41:42.877824","APOAPSIS":"548.396","INCLINATION":"53.0536","OBJECT_TYPE":"PAYLOAD","DECAY_DATE":null,"GP_ID":"212642204","TLE_LINE2":"2 44726  53.0536 135.1295 0001671  79.1946 280.9231 15.06391682157081","MEAN_ELEMENT_THEORY":"SGP4","RCS_SIZE":"LARGE","CLASSIFICATION_TYPE":"U","MEAN_MOTION_DOT":"0.00000855","RA_OF_ASC_NODE":"135.1295","MEAN_ANOMALY":"280.9231"},{"TIME_SYSTEM":"UTC","EPHEMERIS_TYPE":"0","COUNTRY_CODE":"US","PERIOD":"95.592","REV_AT_EPOCH":"15677","MEAN_MOTION_DDOT":"0.0000000000000","ECCENTRICITY":"0.00010380","BSTAR":"0.00003423200000","OBJECT_NAME":"STARLINK-1022","OBJECT_ID":"2019-074Q","ELEMENT_SET_NO":"999","FILE":"3574775","NORAD_CAT_ID":"44727","SITE":"AFETR","LAUNCH_DATE":"2019-11-11","CENTER_NAME":"EARTH","MEAN_MOTION":"15.06394806","MEAN_ELEMENT_THEORY":"SGP4","RA_OF_ASC_NODE":"173.1986","MEAN_MOTION_DOT":"0.00000229","RCS_SIZE":"LARGE","CLASSIFICATION_TYPE":"U","MEAN_ANOMALY":"269.7882","OBJECT_TYPE":"PAYLOAD","INCLINATION":"53.0555","DECAY_DATE":null,"GP_ID":"212652487","TLE_LINE2":"2 44727  53.0555 173.1986 0001038  90.3226 269.7882 15.06394806156778","SEMIMAJOR_AXIS":"6925.364","REF_FRAME":"TEME","EPOCH":"2022-09-15T12:06:39.756384","APOAPSIS":"547.948","TLE_LINE1":"1 44727U 19074Q   22258.50462681  .00000229  00000-0  34232-4 0  9997","ARG_OF_PERICENTER":"90.3226","PERIAPSIS":"546.511"},{"BSTAR":"0.00200710000000","ECCENTRICITY":"0.00011600","PERIOD":"94.957","REV_AT_EPOCH":"15704","MEAN_MOTION_DDOT":"0.0000000000000","COUNTRY_CODE":"US","EPHEMERIS_TYPE":"0","TIME_SYSTEM":"UTC","SITE":"AFETR","LAUNCH_DATE":"2019-11-11","MEAN_MOTION":"15.16471277","CENTER_NAME":"EARTH","FILE":"3574601","NORAD_CAT_ID":"44729","ELEMENT_SET_NO":"999","OBJECT_ID":"2019-074S","OBJECT_NAME":"STARLINK-1024","TLE_LINE2":"2 44729  53.0012 137.3502 0001160  83.6827 276.4298 15.16471277157048","GP_ID":"212641204","DECAY_DATE":null,"OBJECT_TYPE":"PAYLOAD","INCLINATION":"53.0012","MEAN_ANOMALY":"276.4298","RA_OF_ASC_NODE":"137.3502","RCS_SIZE":"LARGE","MEAN_MOTION_DOT":"0.00039447","CLASSIFICATION_TYPE":"U","MEAN_ELEMENT_THEORY":"SGP4","PERIAPSIS":"515.718","ARG_OF_PERICENTER":"83.6827","TLE_LINE1":"1 44729U 19074S   22258.40359105  .00039447  00000-0  20071-2 0  9992","APOAPSIS":"517.317","EPOCH":"2022-09-15T09:41:10.266720","REF_FRAME":"TEME","SEMIMAJOR_AXIS":"6894.653"},{"TLE_LINE1":"1 44731U 19074U   22258.87784997  .00001017  00000-0  87163-4 0  9996","ARG_OF_PERICENTER":"78.6277","PERIAPSIS":"546.226","SEMIMAJOR_AXIS":"6925.373","REF_FRAME":"TEME","EPOCH":"2022-09-15T21:04:06.237408","APOAPSIS":"548.251","OBJECT_TYPE":"PAYLOAD","INCLINATION":"53.0551","DECAY_DATE":null,"GP_ID":"212678614","TLE_LINE2":"2 44731  53.0551 131.5272 0001462  78.6277 281.4877 15.06391928157207","MEAN_ELEMENT_THEORY":"SGP4","RA_OF_ASC_NODE":"131.5272","CLASSIFICATION_TYPE":"U","RCS_SIZE":"LARGE","MEAN_MOTION_DOT":"0.00001017","MEAN_ANOMALY":"281.4877","ELEMENT_SET_NO":"999","FILE":"3575050","NORAD_CAT_ID":"44731","SITE":"AFETR","LAUNCH_DATE":"2019-11-11","CENTER_NAME":"EARTH","MEAN_MOTION":"15.06391928","OBJECT_NAME":"STARLINK-1026","OBJECT_ID":"2019-074U","PERIOD":"95.593","REV_AT_EPOCH":"15720","MEAN_MOTION_DDOT":"0.0000000000000","ECCENTRICITY":"0.00014620","BSTAR":"0.00008716300000","TIME_SYSTEM":"UTC","EPHEMERIS_TYPE":"0","COUNTRY_CODE":"US"},{"BSTAR":"0.00002063800000","ECCENTRICITY":"0.00014750","MEAN_MOTION_DDOT":"0.0000000000000","REV_AT_EPOCH":"15681","PERIOD":"95.592","COUNTRY_CODE":"US","EPHEMERIS_TYPE":"0","TIME_SYSTEM":"UTC","CENTER_NAME":"EARTH","LAUNCH_DATE":"2019-11-11","MEAN_MOTION":"15.06397012","SITE":"AFETR","NORAD_CAT_ID":"44732","FILE":"3574601","ELEMENT_SET_NO":"999","OBJECT_ID":"2019-074V","OBJECT_NAME":"STARLINK-1027","TLE_LINE2":"2 44732  53.0551 154.8458 0001475  71.4881 288.6268 15.06397012156817","GP_ID":"212642705","DECAY_DATE":null,"INCLINATION":"53.0551","OBJECT_TYPE":"PAYLOAD","MEAN_ANOMALY":"288.6268","MEAN_MOTION_DOT":"0.00000026","RCS_SIZE":"LARGE","CLASSIFICATION_TYPE":"U","RA_OF_ASC_NODE":"154.8458","MEAN_ELEMENT_THEORY":"SGP4","PERIAPSIS":"546.201","ARG_OF_PERICENTER":"71.4881","TLE_LINE1":"1 44732U 19074V   22258.13513904  .00000026  00000-0  20638-4 0  9997","APOAPSIS":"548.244","EPOCH":"2022-09-15T03:14:36.013056","REF_FRAME":"TEME","SEMIMAJOR_AXIS":"6925.358"}];
